OBJECT_NAME,OBJECT_ID,EPOCH,MEAN_MOTION,ECCENTRICITY,INCLINATION,RA_OF_ASC_NODE,ARG_OF_PERICENTER,MEAN_ANOMALY,EPHEMERIS_TYPE,CLASSIFICATION_TYPE,NORAD_CAT_ID,ELEMENT_SET_NO,REV_AT_EPOCH,BSTAR,MEAN_MOTION_DOT,MEAN_MOTION_DDOT
STARLINK-36153,2025-286K,2026-06-11T01:48:32.596128,15.34395712,.00011859,53.1607,284.0385,84.6239,275.4899,0,U,66934,999,2972,.78852695E-3,.26355E-3,0
STARLINK-36127,2025-286L,2026-06-11T00:53:59.956800,15.34413348,.00012388,53.1582,283.8085,75.6529,284.4611,0,U,66935,999,2972,.65789531E-3,.21926E-3,0
STARLINK-36160,2025-286M,2026-06-10T15:43:20.681472,15.34405593,.00013398,53.1600,285.6846,81.5308,278.5846,0,U,66936,999,2965,.88261024E-3,.29567E-3,0
STARLINK-36165,2025-286N,2026-06-11T01:27:19.656288,15.34404984,.00014988,53.1613,283.9482,82.7503,277.3670,0,U,66937,999,2972,.45128177E-3,.14904E-3,0
STARLINK-36155,2025-286P,2026-06-10T15:52:25.853376,15.34408668,.00009126,53.1606,285.7168,91.3356,268.7751,0,U,66938,999,2966,.99288673E-3,.33328E-3,0
STARLINK-36154,2025-286Q,2026-06-11T01:03:05.063040,15.34426550,.00009833,53.1594,283.8422,78.7810,281.3303,0,U,66939,999,2972,.10335421E-2,.34735E-3,0
STARLINK-36121,2025-286R,2026-06-10T17:32:17.164608,15.34410619,.00012034,53.1610,285.4425,86.3519,273.7621,0,U,66940,999,2967,.87589214E-3,.29343E-3,0
STARLINK-36088,2025-286S,2026-06-10T15:13:02.728704,15.34422604,.00012785,53.1591,285.5558,115.2095,244.9041,0,U,66941,999,2966,.13139875E-2,.44314E-3,0
STARLINK-36100,2025-286T,2026-06-11T01:39:26.986176,15.34413795,.0001361,53.1614,284.0004,79.0226,281.0930,0,U,66942,999,2965,.96718372E-3,.32457E-3,0
STARLINK-36109,2025-286U,2026-06-11T01:00:03.603168,15.34411627,.00012072,53.1586,283.8290,65.0222,295.0906,0,U,66943,999,2965,.10306864E-2,.34621E-3,0
STARLINK-36112,2025-286V,2026-06-11T00:47:56.554080,15.34392202,.00010838,53.1580,283.7790,91.1900,268.9227,0,U,66944,999,2972,.78209694E-3,.26134E-3,0
STARLINK-36110,2025-286W,2026-06-10T14:39:50.720544,15.34401745,.00012343,53.1607,286.1175,97.7297,262.3846,0,U,66945,999,2965,.63500177E-3,.2114E-3,0
STARLINK-36115,2025-286X,2026-06-11T01:24:17.845632,15.34405147,.00011854,53.1593,283.9330,72.8388,287.2744,0,U,66946,999,2972,.74458317E-3,.24868E-3,0
STARLINK-36089,2025-286Y,2026-06-11T01:45:30.706848,15.34406863,.00014423,53.1597,284.0208,91.7838,268.3330,0,U,66947,999,2972,.90758706E-3,.30419E-3,0
STARLINK-36116,2025-286Z,2026-06-10T15:07:07.333536,15.34403428,.00010605,53.1590,286.2315,77.2377,282.8744,0,U,66948,999,2964,.65746709E-3,.21905E-3,0
STARLINK-36096,2025-286AA,2026-06-10T15:19:06.578112,15.34393933,.00012277,53.1588,285.5762,86.1122,274.0021,0,U,66949,999,2966,.53103867E-3,.17604E-3,0
STARLINK-36111,2025-286AB,2026-06-10T15:16:05.103552,15.34413978,.00014246,53.1586,285.5620,86.0857,274.0308,0,U,66950,999,2966,.63719584E-3,.21223E-3,0
STARLINK-35999,2025-286AC,2026-06-10T14:36:48.940992,15.34401143,.00015294,53.1613,286.0985,86.8602,273.2576,0,U,66951,999,2965,.54892004E-3,.18216E-3,0
STARLINK-36122,2025-286AD,2026-06-11T01:09:09.516384,15.34393967,.00011796,53.1586,283.8716,102.0090,258.1045,0,U,66952,999,2972,.7104241E-3,.23698E-3,0
HULIANWANG DIGUI-114,2025-287A,2026-06-11T02:21:04.732416,13.24411568,.00019067,86.4931,284.4240,111.4970,248.6368,0,U,66953,999,2453,-.10711265E-4,.1E-6,0
HULIANWANG DIGUI-115,2025-287B,2026-06-11T02:09:17.660736,13.24428943,.00019483,86.4947,284.4505,115.7613,244.3722,0,U,66954,999,2453,.10162713E-4,.19E-6,0
HULIANWANG DIGUI-116,2025-287C,2026-06-11T01:59:18.947616,13.24411155,.00019963,86.4887,284.3333,113.3713,246.7632,0,U,66955,999,2453,.18821272E-4,.23E-6,0
HULIANWANG DIGUI-117,2025-287D,2026-06-11T01:48:28.635552,13.24413784,.000271,86.4948,284.4446,76.9374,283.2063,0,U,66956,999,2453,.42154113E-4,.33E-6,0
HULIANWANG DIGUI-118,2025-287E,2026-06-11T01:37:33.352032,13.24412521,.00019154,86.4924,284.3958,112.8869,247.2467,0,U,66957,999,2453,.70211595E-4,.45E-6,0
STARLINK-35887,2025-288A,2026-06-10T10:33:37.301184,15.27619477,.00013144,43.0024,219.5481,270.5261,89.5440,0,U,66959,999,2947,.75472035E-3,.20589E-3,0
STARLINK-35879,2025-288B,2026-06-10T20:18:54.381600,15.27579211,.00016188,42.9976,217.4301,274.3441,85.7225,0,U,66960,999,2953,.72087866E-3,.19627E-3,0
STARLINK-35761,2025-288C,2026-06-09T21:30:44.710848,15.27618224,.00041254,43.0106,222.3422,269.1234,90.9145,0,U,66961,999,2939,.72765196E-3,.19841E-3,0
STARLINK-35874,2025-288D,2026-06-10T20:57:46.102464,15.27593061,.00020057,43.0031,217.6350,268.0430,92.0192,0,U,66962,999,2953,.57635042E-3,.15638E-3,0
STARLINK-36133,2025-288E,2026-06-10T20:20:45.437568,15.27591415,.00021287,42.9926,217.4340,279.9400,80.1211,0,U,66963,999,2953,.69375337E-3,.18885E-3,0
STARLINK-36104,2025-288F,2026-06-11T00:00:02.000160,15.27561703,.00012886,43.0007,216.8049,270.6885,115.7825,0,U,66964,999,583,.97506637E-3,.26652E-3,0
STARLINK-36067,2025-288G,2026-06-10T10:20:39.791040,15.27594868,.0002761,43.0018,219.4780,278.9914,81.0625,0,U,66965,999,2947,.55815902E-3,.15136E-3,0
STARLINK-36139,2025-288H,2026-06-10T10:22:30.697536,15.27603036,.00003608,43.0006,219.4816,283.9705,76.1107,0,U,66966,999,2947,.75744728E-3,.20654E-3,0
STARLINK-36136,2025-288J,2026-06-09T11:04:58.334592,15.27592291,.00015772,42.9993,225.0950,263.6747,96.3925,0,U,66967,999,2932,.39729236E-3,.10691E-3,0
STARLINK-36152,2025-288K,2026-06-10T20:35:33.425664,15.27599000,.00022854,43.0003,217.5192,273.4753,86.5837,0,U,66968,999,2953,.62544758E-3,.16999E-3,0
STARLINK-36149,2025-288L,2026-06-10T20:48:30.295584,15.27592942,.00032719,43.0031,217.5937,269.4137,90.6339,0,U,66969,999,2953,.51027419E-3,.13812E-3,0
STARLINK-35703,2025-288M,2026-06-10T10:16:57.964224,15.27594243,.00033259,43.0003,219.4509,275.3521,84.6951,0,U,66970,999,2947,.65202445E-3,.17733E-3,0
STARLINK-35678,2025-288N,2026-06-10T20:09:39.259872,15.27594808,.00022593,42.9962,217.3744,278.7639,81.2957,0,U,66971,999,2953,.74958048E-3,.20432E-3,0
STARLINK-34846,2025-288P,2026-06-10T10:28:05.577024,15.27590149,.00017792,43.0053,219.5137,291.6337,68.4325,0,U,66972,999,2947,.49774129E-3,.13464E-3,0
STARLINK-35778,2025-288Q,2026-06-10T21:08:39.497280,15.27594787,.00021348,43.0028,216.8338,269.7154,90.3453,0,U,66973,999,2954,.72979138E-3,.19884E-3,0
STARLINK-35780,2025-288R,2026-06-09T21:27:03.900960,15.27588512,.00015837,43.0025,222.3187,281.1331,78.9342,0,U,66974,999,2939,.76361675E-3,.20816E-3,0
STARLINK-35777,2025-288S,2026-06-09T21:23:34.169280,15.27621153,.00020478,43.0042,223.1649,274.7006,85.3612,0,U,66975,999,2938,.80767802E-3,.22058E-3,0
STARLINK-35772,2025-288T,2026-06-10T20:07:48.740448,15.27593918,.00024309,42.9962,217.4139,284.0739,75.9842,0,U,66976,999,2953,.83622544E-3,.22831E-3,0
STARLINK-35770,2025-288U,2026-06-10T20:33:42.839712,15.27580893,.00009879,43.0036,217.5068,289.3596,70.7149,0,U,66977,999,2953,.69580499E-3,.18934E-3,0
STARLINK-35787,2025-288V,2026-06-10T10:15:06.964416,15.27588974,.00043362,43.0028,219.4474,277.3516,82.6843,0,U,66978,999,2947,.5258605E-3,.14243E-3,0
STARLINK-36107,2025-288W,2026-06-10T20:54:03.271680,15.27567539,.00028825,43.0018,217.6108,266.7846,93.2676,0,U,66979,999,2953,.53856973E-3,.14583E-3,0
STARLINK-36086,2025-288X,2026-06-11T06:00:02.000160,15.27585989,.000113,43.0003,215.3400,256.8749,87.1803,0,U,66980,999,586,-.377902E-3,-.10648E-3,0
STARLINK-36142,2025-288Y,2026-06-10T20:24:27.127872,15.27602537,.00024245,42.9860,217.4526,278.9820,81.0756,0,U,66981,999,2953,.70253209E-3,.19135E-3,0
STARLINK-36113,2025-288Z,2026-06-10T21:04:57.180576,15.27588817,.00026988,43.0095,216.8073,273.3263,86.7280,0,U,66982,999,2954,.50617246E-3,.13697E-3,0
STARLINK-36145,2025-288AA,2026-06-10T20:26:17.750112,15.27599355,.00036621,42.9999,217.4662,261.9044,98.1392,0,U,66983,999,2953,.70522809E-3,.19208E-3,0
STARLINK-35591,2025-288AB,2026-06-10T11:16:09.947712,15.27610314,.00005833,43.0005,219.7579,280.6503,79.4283,0,U,66984,999,2947,.84153702E-3,.22989E-3,0
STARLINK-36103,2025-288AC,2026-06-10T11:18:01.460736,15.27600196,.00001155,43.0003,219.7607,193.4338,166.6511,0,U,66985,999,2947,.64720217E-3,.17601E-3,0
STARLINK-36135,2025-288AD,2026-06-09T20:42:51.443424,15.27603024,.00022426,42.9977,222.9397,276.1407,83.9190,0,U,66986,999,2938,.77637035E-3,.21179E-3,0
STARLINK-36147,2025-288AE,2026-06-10T10:39:10.144224,15.27598926,.00003876,43.0065,219.5631,220.0680,140.0143,0,U,66987,999,2947,.84959357E-3,.23204E-3,0
YAOGAN-47,2025-289A,2026-06-11T07:08:12.133824,15.23213146,.00005599,97.5026,232.6155,105.2447,254.8852,0,U,66988,999,2803,.18775425E-3,.4371E-4,0
TJS-22,2025-290A,2026-06-10T21:25:01.353792,1.00272586,.00019424,1.5434,286.4813,331.6612,28.8108,0,U,66990,999,196,0,.11E-6,0
2025-292A,2025-292A,2026-06-11T04:48:04.954176,15.06263105,.00155007,97.6318,237.9600,26.1261,334.0745,0,U,66993,999,2754,.2173882E-3,.3136E-4,0
THE ARAB SATELLITE 813,2025-292B,2026-06-11T04:24:17.907840,15.06464829,.001503,97.6324,238.0112,26.3019,333.8969,0,U,66994,999,2754,.20389788E-3,.2953E-4,0
2025-292C,2025-292C,2026-06-11T04:21:34.064064,15.06553117,.00150756,97.6310,237.9862,24.1847,336.0085,0,U,66995,999,2754,.21997337E-3,.3199E-4,0
2025-292D,2025-292D,2026-06-11T05:04:33.091104,15.06009289,.00147491,97.6323,237.9432,28.4275,331.7753,0,U,66996,999,2754,.1963213E-3,.2806E-4,0
2025-292E,2025-292E,2026-06-11T04:22:39.122400,15.06347767,.00150226,97.6330,238.0269,29.1330,331.0732,0,U,66997,999,2753,.16588876E-3,.2383E-4,0
2025-292F,2025-292F,2026-06-11T05:03:45.800064,15.06720352,.00152738,97.6357,238.1853,30.4853,329.7259,0,U,66998,999,2755,.27237327E-3,.3995E-4,0
2025-292G,2025-292G,2026-06-11T05:04:52.096512,15.06751724,.00161522,97.6366,238.2064,36.3062,323.9257,0,U,66999,999,2755,.27615602E-3,.4056E-4,0
2025-292H,2025-292H,2026-06-11T02:13:23.796192,15.07550337,.00150387,97.6383,238.2489,30.7941,329.4166,0,U,67000,999,2741,.48490463E-3,.7327E-4,0
2025-292J,2025-292J,2026-06-11T04:37:05.917440,15.06495731,.00155039,97.6350,238.0502,22.2483,337.9413,0,U,67001,999,2754,.23611183E-3,.3433E-4,0
